[
    {
        "Altitude(m)": 622205.8289715874,
        "Argument of Periapsis(deg)": 0.0,
        "Eccentricity": 0.0,
        "Inclination(deg)": 60.0,
        "Latitude(deg)": -52.162329102591684,
        "Longitude(deg)": 87.70043146584484,
        "Mean Anomaly(deg)": -114.5455,
        "RAAN(deg)": 320.0,
        "Satellite Name": "Test1 1423",
        "Satellite Number": 1423,
        "Semi-Major Axis(m)": 6980739.136638005,
        "Time(s)": 0
    },
    {
        "Altitude(m)": 622344.7354992703,
        "Argument of Periapsis(deg)": 0.00010418945913296404,
        "Eccentricity": 0.0,
        "Inclination(deg)": 60.0,
        "Latitude(deg)": -52.519908320993075,
        "Longitude(deg)": 88.48164242691453,
        "Mean Anomaly(deg)": -113.92539385453817,
        "RAAN(deg)": 319.9995799508602,
        "Satellite Name": "Test1 1423",
        "Satellite Number": 1423,
        "Semi-Major Axis(m)": 6980739.136638005,
        "Time(s)": 10
    }
]